[{"OBJECT_NAME":"STARLINK-1894","OBJECT_ID":"2020-074F","EPOCH":"2026-03-10T00:00:02.999808","MEAN_MOTION":15.80712393,"ECCENTRICITY":0.00023349,"INCLINATION":53.0425,"RA_OF_ASC_NODE":276.1954,"ARG_OF_PERICENTER":282.1358,"MEAN_ANOMALY":10.1034,"EPHEMERIS_TYPE":0,"CLASSIFICATION_TYPE":"U","NORAD_CAT_ID":46744,"ELEMENT_SET_NO":999,"REV_AT_EPOCH":597,"BSTAR":0.0014063958,"MEAN_MOTION_DOT":0.00284143,"MEAN_MOTION_DDOT":0},{"OBJECT_NAME":"STARLINK-1965","OBJECT_ID":"2021-009U","EPOCH":"2026-03-09T22:00:01.999584","MEAN_MOTION":15.82162329,"ECCENTRICITY":0.00080631,"INCLINATION":53.0138,"RA_OF_ASC_NODE":281.45,"ARG_OF_PERICENTER":151.8598,"MEAN_ANOMALY":352.2336,"EPHEMERIS_TYPE":0,"CLASSIFICATION_TYPE":"U","NORAD_CAT_ID":47566,"ELEMENT_SET_NO":999,"REV_AT_EPOCH":596,"BSTAR":0.0011319384,"MEAN_MOTION_DOT":0.00243716,"MEAN_MOTION_DDOT":0}]
